CCSDS_OMM_VERS,COMMENT,CREATION_DATE,ORIGINATOR,OBJECT_NAME,OBJECT_ID,CENTER_NAME,REF_FRAME,TIME_SYSTEM,MEAN_ELEMENT_THEORY,EPOCH,MEAN_MOTION,ECCENTRICITY,INCLINATION,RA_OF_ASC_NODE,ARG_OF_PERICENTER,MEAN_ANOMALY,EPHEMERIS_TYPE,CLASSIFICATION_TYPE,NORAD_CAT_ID,ELEMENT_SET_NO,REV_AT_EPOCH,BSTAR,MEAN_MOTION_DOT,MEAN_MOTION_DDOT,SEMIMAJOR_AXIS,PERIOD,APOAPSIS,PERIAPSIS,OBJECT_TYPE,RCS_SIZE,COUNTRY_CODE,LAUNCH_DATE,SITE,DECAY_DATE,FILE,GP_ID,TLE_LINE0,TLE_LINE1,TLE_LINE2
"2.0","GENERATED VIA SPACE-TRACK.ORG API","2020-05-13T14:36:09","18 SPCS","ORBCOMM FM 30","1999-065A","EARTH","TEME","UTC","SGP4","2020-05-13T10:22:13.392480","14.32877135","0.00047830","45.0323","212.1112","117.3224","242.8110","0","U","25980","999","6786","0.00004565400000","-0.00000015","0.0000000000000","7160.266","100.497","785.556","778.707","PAYLOAD","MEDIUM","ORB","1999-12-04","AFETR","","2748570","153868957","0 ORBCOMM FM 30","1 25980U 99065A   20134.43209945 -.00000015  00000-0  45654-4 0  9994","2 25980  45.0323 212.1112 0004783 117.3224 242.8110 14.32877135 67861"
"2.0","GENERATED VIA SPACE-TRACK.ORG API","2020-05-13T01:21:35","18 SPCS","ORBCOMM FM 30","1999-065A","EARTH","TEME","UTC","SGP4","2020-05-12T17:38:13.227648","14.32877006","0.00047750","45.0323","215.3877","113.1325","247.0025","0","U","25980","999","6723","0.00005430900000","0.00000009","0.0000000000000","7160.267","100.497","785.551","778.713","PAYLOAD","MEDIUM","ORB","1999-12-04","AFETR","","2748360","153851030","0 ORBCOMM FM 30","1 25980U 99065A   20133.73487532 +.00000009 +00000-0 +54309-4 0  9995","2 25980 045.0323 215.3877 0004775 113.1325 247.0025 14.32877006067231"
"2.0","GENERATED VIA SPACE-TRACK.ORG API","2020-05-12T14:26:09","18 SPCS","ORBCOMM FM 30","1999-065A","EARTH","TEME","UTC","SGP4","2020-05-12T09:16:13.135296","14.32876958","0.00047760","45.0324","217.0258","111.1309","249.0048","0","U","25980","999","6771","0.00005946000000","0.00000023","0.0000000000000","7160.267","100.497","785.552","778.712","PAYLOAD","MEDIUM","ORB","1999-12-04","AFETR","","2748055","153816668","0 ORBCOMM FM 30","1 25980U 99065A   20133.38626314  .00000023  00000-0  59460-4 0  9998","2 25980  45.0324 217.0258 0004776 111.1309 249.0048 14.32876958 67710"
"2.0","GENERATED VIA SPACE-TRACK.ORG API","2020-05-12T14:16:09","18 SPCS","CZ-4 DEB","1999-057SK","EARTH","TEME","UTC","SGP4","2020-05-12T06:38:58.253568","14.46812273","0.01144110","98.7047","146.8216","295.8414","119.7722","0","U","35331","999","91194","0.00014439000000","0.00000514","0.0000000000000","7114.216","99.529","817.475","654.686","DEBRIS","SMALL","PRC","1999-10-14","TSC","","2748042","153816350","0 CZ-4 DEB","1 35331U 99057SK  20133.27706312  .00000514  00000-0  14439-3 0  9996","2 35331  98.7047 146.8216 0114411 295.8414 119.7722 14.46812273911946"
"2.0","GENERATED VIA SPACE-TRACK.ORG API","2020-05-11T16:32:02","18 SPCS","ORBCOMM FM 30","1999-065A","EARTH","TEME","UTC","SGP4","2020-05-11T13:11:24.921600","14.32876780","0.00047700","45.0324","220.9576","106.0087","254.1286","0","U","25980","999","6706","0.00007363500000","0.00000062","0.0000000000000","7160.268","100.497","785.548","778.717","PAYLOAD","MEDIUM","ORB","1999-12-04","AFETR","","2747683","153775930","0 ORBCOMM FM 30","1 25980U 99065A   20132.54959400 +.00000062 +00000-0 +73635-4 0  9993","2 25980 045.0324 220.9576 0004770 106.0087 254.1286 14.32876780067068"
"2.0","GENERATED VIA SPACE-TRACK.ORG API","2020-05-11T02:01:54","18 SPCS","CZ-4 DEB","1999-057SK","EARTH","TEME","UTC","SGP4","2020-05-10T20:06:53.154144","14.46810422","0.01144490","98.7048","145.3421","300.2372","184.9157","0","U","35331","999","33396","0.00014378000000","0.00000511","0.0000000000000","7114.222","99.529","817.508","654.665","DEBRIS","SMALL","PRC","1999-10-14","TSC","","2747328","153752723","0 CZ-4 DEB","1 35331U 99057SK  20131.83811521 +.00000511 +00000-0 +14378-3 0  9994","2 35331 098.7048 145.3421 0114449 300.2372 184.9157 14.46810422333964"
"2.0","GENERATED VIA SPACE-TRACK.ORG API","2020-05-11T02:01:54","18 SPCS","ORBCOMM FM 30","1999-065A","EARTH","TEME","UTC","SGP4","2020-05-10T18:47:00.697344","14.32876668","0.00047620","45.0324","224.5618","101.4312","258.7070","0","U","25980","999","6695","0.00008891500000","0.00000104","0.0000000000000","7160.268","100.497","785.543","778.723","PAYLOAD","MEDIUM","ORB","1999-12-04","AFETR","","2747328","153747485","0 ORBCOMM FM 30","1 25980U 99065A   20131.78264696 +.00000104 +00000-0 +88915-4 0  9998","2 25980 045.0324 224.5618 0004762 101.4312 258.7070 14.32876668066959"
"2.0","GENERATED VIA SPACE-TRACK.ORG API","2020-05-10T22:36:09","18 SPCS","ORBCOMM FM 30","1999-065A","EARTH","TEME","UTC","SGP4","2020-05-10T17:06:36.679392","14.32876649","0.00047630","45.0324","224.8895","101.0136","259.1246","0","U","25980","999","6747","0.00009054400000","0.00000109","0.0000000000000","7160.268","100.497","785.543","778.723","PAYLOAD","MEDIUM","ORB","1999-12-04","AFETR","","2747222","153737958","0 ORBCOMM FM 30","1 25980U 99065A   20131.71292453  .00000109  00000-0  90544-4 0  9999","2 25980  45.0324 224.8895 0004763 101.0136 259.1246 14.32876649 67477"
"2.0","GENERATED VIA SPACE-TRACK.ORG API","2020-05-10T18:36:51","18 SPCS","ORBCOMM FM 30","1999-065A","EARTH","TEME","UTC","SGP4","2020-05-10T12:05:24.615168","14.32876633","0.00047740","45.0324","225.8723","99.7509","260.3877","0","U","25980","999","6691","0.00009546000000","0.00000122","0.0000000000000","7160.268","100.497","785.551","778.715","PAYLOAD","MEDIUM","ORB","1999-12-04","AFETR","","2747173","153723941","0 ORBCOMM FM 30","1 25980U 99065A   20131.50375712 +.00000122 +00000-0 +95460-4 0  9993","2 25980 045.0324 225.8723 0004774 099.7509 260.3877 14.32876633066912"
"2.0","GENERATED VIA SPACE-TRACK.ORG API","2020-05-10T14:36:13","18 SPCS","CZ-4 DEB","1999-057SK","EARTH","TEME","UTC","SGP4","2020-05-10T06:31:15.078720","14.46809784","0.01144940","98.7048","144.7599","301.9733","114.7129","0","U","35331","999","91165","0.00014776000000","0.00000527","0.0000000000000","7114.224","99.529","817.542","654.635","DEBRIS","SMALL","PRC","1999-10-14","TSC","","2747034","153713117","0 CZ-4 DEB","1 35331U 99057SK  20131.27170230  .00000527  00000-0  14776-3 0  9996","2 35331  98.7048 144.7599 0114494 301.9733 114.7129 14.46809784911659"
"2.0","GENERATED VIA SPACE-TRACK.ORG API","2020-05-10T01:14:56","18 SPCS","ORBCOMM FM 30","1999-065A","EARTH","TEME","UTC","SGP4","2020-05-09T17:41:00.381408","14.32876418","0.00047770","45.0324","229.4766","95.0970","265.0422","0","U","25980","999","6680","0.00010658000000","0.00000153","0.0000000000000","7160.269","100.497","785.554","778.713","PAYLOAD","MEDIUM","ORB","1999-12-04","AFETR","","2746803","153695053","0 ORBCOMM FM 30","1 25980U 99065A   20130.73680997 +.00000153 +00000-0 +10658-3 0  9990","2 25980 045.0324 229.4766 0004777 095.0970 265.0422 14.32876418066800"
"2.0","GENERATED VIA SPACE-TRACK.ORG API","2020-05-09T17:13:04","18 SPCS","ORBCOMM FM 30","1999-065A","EARTH","TEME","UTC","SGP4","2020-05-09T12:39:48.313728","14.32876352","0.00047870","45.0325","230.4594","93.8800","266.2594","0","U","25980","999","6677","0.00010873000000","0.00000159","0.0000000000000","7160.269","100.497","785.562","778.706","PAYLOAD","MEDIUM","ORB","1999-12-04","AFETR","","2746670","153672075","0 ORBCOMM FM 30","1 25980U 99065A   20130.52764252 +.00000159 +00000-0 +10873-3 0  9999","2 25980 045.0325 230.4594 0004787 093.8800 266.2594 14.32876352066777"
"2.0","GENERATED VIA SPACE-TRACK.ORG API","2020-05-09T14:26:10","18 SPCS","ORBCOMM FM 30","1999-065A","EARTH","TEME","UTC","SGP4","2020-05-09T10:59:24.290592","14.32876330","0.00047900","45.0325","230.7871","93.4433","266.6961","0","U","25980","999","6729","0.00010919000000","0.00000160","0.0000000000000","7160.269","100.497","785.564","778.704","PAYLOAD","MEDIUM","ORB","1999-12-04","AFETR","","2746568","153662150","0 ORBCOMM FM 30","1 25980U 99065A   20130.45792003  .00000160  00000-0  10919-3 0  9999","2 25980  45.0325 230.7871 0004790  93.4433 266.6961 14.32876330 67296"
"2.0","GENERATED VIA SPACE-TRACK.ORG API","2020-05-09T17:13:04","18 SPCS","CZ-4 DEB","1999-057SK","EARTH","TEME","UTC","SGP4","2020-05-09T05:38:53.078784","14.46808500","0.01145440","98.7049","143.6945","305.1373","116.7429","0","U","35331","999","33373","0.00015133000000","0.00000541","0.0000000000000","7114.228","99.529","817.582","654.604","DEBRIS","SMALL","PRC","1999-10-14","TSC","","2746670","153677313","0 CZ-4 DEB","1 35331U 99057SK  20130.23533656 +.00000541 +00000-0 +15133-3 0  9990","2 35331 098.7049 143.6945 0114544 305.1373 116.7429 14.46808500333732"
"2.0","GENERATED VIA SPACE-TRACK.ORG API","2020-05-09T02:31:05","18 SPCS","ORBCOMM FM 30","1999-065A","EARTH","TEME","UTC","SGP4","2020-05-08T18:15:24.060096","14.32876041","0.00047960","45.0325","234.0636","89.2255","270.9141","0","U","25980","999","6666","0.00011352000000","0.00000172","0.0000000000000","7160.270","100.497","785.569","778.701","PAYLOAD","MEDIUM","ORB","1999-12-04","AFETR","","2746314","153624066","0 ORBCOMM FM 30","1 25980U 99065A   20129.76069514 +.00000172 +00000-0 +11352-3 0  9990","2 25980 045.0325 234.0636 0004796 089.2255 270.9141 14.32876041066660"
"2.0","GENERATED VIA SPACE-TRACK.ORG API","2020-05-08T14:36:10","18 SPCS","ORBCOMM FM 30","1999-065A","EARTH","TEME","UTC","SGP4","2020-05-08T09:53:23.936640","14.32875838","0.00048060","45.0325","235.7018","87.1839","272.9557","0","U","25980","999","6714","0.00011048000000","0.00000163","0.0000000000000","7160.271","100.497","785.577","778.694","PAYLOAD","MEDIUM","ORB","1999-12-04","AFETR","","2746048","153590799","0 ORBCOMM FM 30","1 25980U 99065A   20129.41208260  .00000163  00000-0  11048-3 0  9997","2 25980  45.0325 235.7018 0004806  87.1839 272.9557 14.32875838 67149"
